[{"OBJECT_NAME":"ONEWEB-0116","OBJECT_ID":"2021-025E","EPOCH":"2026-04-20T01:54:11.132064","MEAN_MOTION":13.13471249,"ECCENTRICITY":0.0001836,"INCLINATION":87.8982,"RA_OF_ASC_NODE":331.7876,"ARG_OF_PERICENTER":85.9575,"MEAN_ANOMALY":274.1764,"EPHEMERIS_TYPE":0,"CLASSIFICATION_TYPE":"U","NORAD_CAT_ID":48046,"ELEMENT_SET_NO":999,"REV_AT_EPOCH":24602,"BSTAR":0.00094992,"MEAN_MOTION_DOT":3.6e-06,"MEAN_MOTION_DDOT":0.0},{"OBJECT_NAME":"ONEWEB-0150","OBJECT_ID":"2021-025F","EPOCH":"2026-04-20T03:09:45.624384","MEAN_MOTION":13.13470488,"ECCENTRICITY":0.0001582,"INCLINATION":87.8974,"RA_OF_ASC_NODE":331.7752,"ARG_OF_PERICENTER":88.3093,"MEAN_ANOMALY":271.8218,"EPHEMERIS_TYPE":0,"CLASSIFICATION_TYPE":"U","NORAD_CAT_ID":48047,"ELEMENT_SET_NO":999,"REV_AT_EPOCH":24592,"BSTAR":0.0008540100000000001,"MEAN_MOTION_DOT":3.25e-06,"MEAN_MOTION_DDOT":0.0},{"OBJECT_NAME":"ONEWEB-0107","OBJECT_ID":"2021-025G","EPOCH":"2026-04-20T03:12:11.202336","MEAN_MOTION":13.13470097,"ECCENTRICITY":0.0001548,"INCLINATION":87.898,"RA_OF_ASC_NODE":331.7704,"ARG_OF_PERICENTER":75.3589,"MEAN_ANOMALY":284.7711,"EPHEMERIS_TYPE":0,"CLASSIFICATION_TYPE":"U","NORAD_CAT_ID":48048,"ELEMENT_SET_NO":999,"REV_AT_EPOCH":24590,"BSTAR":0.00082894,"MEAN_MOTION_DOT":3.15e-06,"MEAN_MOTION_DDOT":0.0},{"OBJECT_NAME":"ONEWEB-0101","OBJECT_ID":"2021-025H","EPOCH":"2026-04-20T04:08:14.910720","MEAN_MOTION":13.13469012,"ECCENTRICITY":0.0001735,"INCLINATION":87.8977,"RA_OF_ASC_NODE":331.7834,"ARG_OF_PERICENTER":78.4618,"MEAN_ANOMALY":281.6706,"EPHEMERIS_TYPE":0,"CLASSIFICATION_TYPE":"U","NORAD_CAT_ID":48049,"ELEMENT_SET_NO":999,"REV_AT_EPOCH":24588,"BSTAR":-0.00078012,"MEAN_MOTION_DOT":-2.72e-06,"MEAN_MOTION_DDOT":0.0},{"OBJECT_NAME":"ONEWEB-0113","OBJECT_ID":"2021-025J","EPOCH":"2026-04-20T01:31:49.416960","MEAN_MOTION":13.13949285,"ECCENTRICITY":0.0001904,"INCLINATION":87.8982,"RA_OF_ASC_NODE":331.721,"ARG_OF_PERICENTER":92.4419,"MEAN_ANOMALY":267.6929,"EPHEMERIS_TYPE":0,"CLASSIFICATION_TYPE":"U","NORAD_CAT_ID":48050,"ELEMENT_SET_NO":999,"REV_AT_EPOCH":24597,"BSTAR":0.0009204,"MEAN_MOTION_DOT":3.51e-06,"MEAN_MOTION_DDOT":0.0},{"OBJECT_NAME":"ONEWEB-0112","OBJECT_ID":"2021-025K","EPOCH":"2026-04-20T01:29:48.974496","MEAN_MOTION":13.13469173,"ECCENTRICITY":0.000173,"INCLINATION":87.8986,"RA_OF_ASC_NODE":331.7819,"ARG_OF_PERICENTER":74.7054,"MEAN_ANOMALY":285.4266,"EPHEMERIS_TYPE":0,"CLASSIFICATION_TYPE":"U","NORAD_CAT_ID":48051,"ELEMENT_SET_NO":999,"REV_AT_EPOCH":24596,"BSTAR":0.00087683,"MEAN_MOTION_DOT":3.33e-06,"MEAN_MOTION_DDOT":0.0},{"OBJECT_NAME":"ONEWEB-0156","OBJECT_ID":"2021-025L","EPOCH":"2026-04-20T01:42:00.146592","MEAN_MOTION":13.13470181,"ECCENTRICITY":0.0001605,"INCLINATION":87.8986,"RA_OF_ASC_NODE":331.7907,"ARG_OF_PERICENTER":83.0375,"MEAN_ANOMALY":277.0937,"EPHEMERIS_TYPE":0,"CLASSIFICATION_TYPE":"U","NORAD_CAT_ID":48052,"ELEMENT_SET_NO":999,"REV_AT_EPOCH":24594,"BSTAR":0.0012116,"MEAN_MOTION_DOT":4.55e-06,"MEAN_MOTION_DDOT":0.0},{"OBJECT_NAME":"ONEWEB-0161","OBJECT_ID":"2021-025M","EPOCH":"2026-04-20T01:05:26.121408","MEAN_MOTION":13.13470332,"ECCENTRICITY":0.0001577,"INCLINATION":87.8974,"RA_OF_ASC_NODE":331.8012,"ARG_OF_PERICENTER":81.3509,"MEAN_ANOMALY":278.7799,"EPHEMERIS_TYPE":0,"CLASSIFICATION_TYPE":"U","NORAD_CAT_ID":48053,"ELEMENT_SET_NO":999,"REV_AT_EPOCH":24587,"BSTAR":0.0001506,"MEAN_MOTION_DOT":6.8e-07,"MEAN_MOTION_DDOT":0.0},{"OBJECT_NAME":"ONEWEB-0158","OBJECT_ID":"2021-025N","EPOCH":"2026-04-20T01:56:37.105728","MEAN_MOTION":13.13469823,"ECCENTRICITY":0.0002098,"INCLINATION":87.8983,"RA_OF_ASC_NODE":331.7884,"ARG_OF_PERICENTER":84.8848,"MEAN_ANOMALY":275.2521,"EPHEMERIS_TYPE":0,"CLASSIFICATION_TYPE":"U","NORAD_CAT_ID":48054,"ELEMENT_SET_NO":999,"REV_AT_EPOCH":24600,"BSTAR":0.00073522,"MEAN_MOTION_DOT":2.81e-06,"MEAN_MOTION_DDOT":0.0},{"OBJECT_NAME":"ONEWEB-0157","OBJECT_ID":"2021-025P","EPOCH":"2026-04-20T00:43:28.780608","MEAN_MOTION":13.13469888,"ECCENTRICITY":0.0001483,"INCLINATION":87.8985,"RA_OF_ASC_NODE":331.8027,"ARG_OF_PERICENTER":72.6754,"MEAN_ANOMALY":287.4537,"EPHEMERIS_TYPE":0,"CLASSIFICATION_TYPE":"U","NORAD_CAT_ID":48055,"ELEMENT_SET_NO":999,"REV_AT_EPOCH":24593,"BSTAR":-0.00077346,"MEAN_MOTION_DOT":-2.7e-06,"MEAN_MOTION_DDOT":0.0},{"OBJECT_NAME":"ONEWEB-0162","OBJECT_ID":"2021-025Q","EPOCH":"2026-04-20T01:58:52.292352","MEAN_MOTION":13.1346959,"ECCENTRICITY":0.0001619,"INCLINATION":87.8976,"RA_OF_ASC_NODE":331.7963,"ARG_OF_PERICENTER":87.3318,"MEAN_ANOMALY":272.7997,"EPHEMERIS_TYPE":0,"CLASSIFICATION_TYPE":"U","NORAD_CAT_ID":48056,"ELEMENT_SET_NO":999,"REV_AT_EPOCH":24591,"BSTAR":0.00020259,"MEAN_MOTION_DOT":8.7e-07,"MEAN_MOTION_DDOT":0.0},{"OBJECT_NAME":"ONEWEB-0155","OBJECT_ID":"2021-025R","EPOCH":"2026-04-20T00:19:06.660192","MEAN_MOTION":13.13468959,"ECCENTRICITY":0.0001735,"INCLINATION":87.8976,"RA_OF_ASC_NODE":331.8065,"ARG_OF_PERICENTER":77.5168,"MEAN_ANOMALY":282.6156,"EPHEMERIS_TYPE":0,"CLASSIFICATION_TYPE":"U","NORAD_CAT_ID":48057,"ELEMENT_SET_NO":999,"REV_AT_EPOCH":24604,"BSTAR":-0.00036857000000000003,"MEAN_MOTION_DOT":-1.22e-06,"MEAN_MOTION_DDOT":0.0},{"OBJECT_NAME":"ONEWEB-0149","OBJECT_ID":"2021-025S","EPOCH":"2026-04-20T00:50:47.606208","MEAN_MOTION":13.1346651,"ECCENTRICITY":0.0001598,"INCLINATION":87.8983,"RA_OF_ASC_NODE":331.8022,"ARG_OF_PERICENTER":89.4496,"MEAN_ANOMALY":270.6816,"EPHEMERIS_TYPE":0,"CLASSIFICATION_TYPE":"U","NORAD_CAT_ID":48058,"ELEMENT_SET_NO":999,"REV_AT_EPOCH":24585,"BSTAR":-0.0008345900000000001,"MEAN_MOTION_DOT":-2.92e-06,"MEAN_MOTION_DDOT":0.0},{"OBJECT_NAME":"ONEWEB-0148","OBJECT_ID":"2021-025T","EPOCH":"2026-04-20T01:46:52.639968","MEAN_MOTION":13.13469527,"ECCENTRICITY":0.0001215,"INCLINATION":87.8975,"RA_OF_ASC_NODE":331.8061,"ARG_OF_PERICENTER":96.1616,"MEAN_ANOMALY":263.9651,"EPHEMERIS_TYPE":0,"CLASSIFICATION_TYPE":"U","NORAD_CAT_ID":48059,"ELEMENT_SET_NO":999,"REV_AT_EPOCH":24598,"BSTAR":0.00083337,"MEAN_MOTION_DOT":3.17e-06,"MEAN_MOTION_DDOT":0.0},{"OBJECT_NAME":"ONEWEB-0160","OBJECT_ID":"2021-025U","EPOCH":"2026-04-20T00:21:33.163488","MEAN_MOTION":13.13468413,"ECCENTRICITY":0.0002397,"INCLINATION":87.8978,"RA_OF_ASC_NODE":331.8139,"ARG_OF_PERICENTER":93.9762,"MEAN_ANOMALY":266.1641,"EPHEMERIS_TYPE":0,"CLASSIFICATION_TYPE":"U","NORAD_CAT_ID":48060,"ELEMENT_SET_NO":999,"REV_AT_EPOCH":24592,"BSTAR":-0.00052475,"MEAN_MOTION_DOT":-1.79e-06,"MEAN_MOTION_DDOT":0.0},{"OBJECT_NAME":"ONEWEB-0163","OBJECT_ID":"2021-025V","EPOCH":"2026-04-20T01:49:18.009696","MEAN_MOTION":13.13470501,"ECCENTRICITY":0.000156,"INCLINATION":87.8975,"RA_OF_ASC_NODE":331.795,"ARG_OF_PERICENTER":75.1416,"MEAN_ANOMALY":284.9886,"EPHEMERIS_TYPE":0,"CLASSIFICATION_TYPE":"U","NORAD_CAT_ID":48061,"ELEMENT_SET_NO":999,"REV_AT_EPOCH":24605,"BSTAR":0.0011708,"MEAN_MOTION_DOT":4.4e-06,"MEAN_MOTION_DDOT":0.0}]