ONEWEB-0116             
1 48046U 21025E   26110.07929551  .00000360  00000+0  94992-3 0  9994
2 48046  87.8982 331.7876 0001836  85.9575 274.1764 13.13471249246028
ONEWEB-0150             
1 48047U 21025F   26110.13177806  .00000325  00000+0  85401-3 0  9996
2 48047  87.8974 331.7752 0001582  88.3093 271.8218 13.13470488245923
ONEWEB-0107             
1 48048U 21025G   26110.13346299  .00000315  00000+0  82894-3 0  9993
2 48048  87.8980 331.7704 0001548  75.3589 284.7711 13.13470097245901
ONEWEB-0101             
1 48049U 21025H   26110.17239480 -.00000272  00000+0 -78012-3 0  9992
2 48049  87.8977 331.7834 0001735  78.4618 281.6706 13.13469012245889
ONEWEB-0113             
1 48050U 21025J   26110.06376640  .00000351  00000+0  92040-3 0  9995
2 48050  87.8982 331.7210 0001904  92.4419 267.6929 13.13949285245974
ONEWEB-0112             
1 48051U 21025K   26110.06237239  .00000333  00000+0  87683-3 0  9993
2 48051  87.8986 331.7819 0001730  74.7054 285.4266 13.13469173245963
ONEWEB-0156             
1 48052U 21025L   26110.07083503  .00000455  00000+0  12116-2 0  9991
2 48052  87.8986 331.7907 0001605  83.0375 277.0937 13.13470181245943
ONEWEB-0161             
1 48053U 21025M   26110.04544122  .00000068  00000+0  15060-3 0  9990
2 48053  87.8974 331.8012 0001577  81.3509 278.7799 13.13470332245871
ONEWEB-0158             
1 48054U 21025N   26110.08098502  .00000281  00000+0  73522-3 0  9995
2 48054  87.8983 331.7884 0002098  84.8848 275.2521 13.13469823246005
ONEWEB-0157             
1 48055U 21025P   26110.03019422 -.00000270  00000+0 -77346-3 0  9993
2 48055  87.8985 331.8027 0001483  72.6754 287.4537 13.13469888245930
ONEWEB-0162             
1 48056U 21025Q   26110.08254968  .00000087  00000+0  20259-3 0  9990
2 48056  87.8976 331.7963 0001619  87.3318 272.7997 13.13469590245914
ONEWEB-0155             
1 48057U 21025R   26110.01327153 -.00000122  00000+0 -36857-3 0  9994
2 48057  87.8976 331.8065 0001735  77.5168 282.6156 13.13468959246042
ONEWEB-0149             
1 48058U 21025S   26110.03527322 -.00000292  00000+0 -83459-3 0  9995
2 48058  87.8983 331.8022 0001598  89.4496 270.6816 13.13466510245856
ONEWEB-0148             
1 48059U 21025T   26110.07422037  .00000317  00000+0  83337-3 0  9998
2 48059  87.8975 331.8061 0001215  96.1616 263.9651 13.13469527245983
ONEWEB-0160             
1 48060U 21025U   26110.01496717 -.00000179  00000+0 -52475-3 0  9997
2 48060  87.8978 331.8139 0002397  93.9762 266.1641 13.13468413245924
ONEWEB-0163             
1 48061U 21025V   26110.07590289  .00000440  00000+0  11708-2 0  9995
2 48061  87.8975 331.7950 0001560  75.1416 284.9886 13.13470501246056
